NORAD_CAT_ID,OBJECT_NAME,OBJECT_TYPE,EPOCH,MEAN_MOTION,ECCENTRICITY,INCLINATION,RA_OF_ASC_NODE,ARG_OF_PERICENTER,MEAN_ANOMALY,BSTAR,MEAN_MOTION_DOT,MEAN_MOTION_DDOT,TLE_LINE0,TLE_LINE1,TLE_LINE2,SEMIMAJOR_AXIS,PERIOD,APOGEE,PERIGEE,DECAYED
55759.0,STARLINK-5081,PAYLOAD,2023-09-22 11:00:24,14.9832096,0.0002918,70.0009,331.914,275.4629,84.6197,0.00017036,1.94e-05,0.0,0 STARLINK-5081,1 55759U 23028U   23265.45861665  .00001940  00000-0  17036-3 0  9999,2 55759  70.0009 331.9140 0002918 275.4629  84.6197 14.98320960 31837,6950.221,96.108,574.114,570.058,0.0
55759.0,STARLINK-5081,PAYLOAD,2023-09-22 12:36:32,14.98324224,0.0003095,70.0009,331.7459,278.4222,81.6586,0.00017921,2.046e-05,0.0,0 STARLINK-5081,1 55759U 23028U   23265.52537479  .00002046  00000-0  17921-3 0  9991,2 55759  70.0009 331.7459 0003095 278.4222  81.6586 14.98324224 31844,6950.211,96.107,574.227,569.925,0.0
55759.0,STARLINK-5081,PAYLOAD,2023-09-22 14:12:40,14.98325753,0.0003094,70.001,331.5776,278.7133,81.3676,0.0001866,2.134e-05,0.0,0 STARLINK-5081,1 55759U 23028U   23265.59213377  .00002134  00000-0  18660-3 0  9995,2 55759  70.0010 331.5776 0003094 278.7133  81.3676 14.98325753 31855,6950.206,96.107,574.221,569.921,0.0
55759.0,STARLINK-5081,PAYLOAD,2023-09-22 22:13:21,14.98305655,0.0003038,70.0011,330.7359,287.0048,73.0778,0.00047927,5.627e-05,0.0,0 STARLINK-5081,1 55759U 23028U   23265.92594205  .00005627  00000-0  47927-3 0  9992,2 55759  70.0011 330.7359 0003038 287.0048  73.0778 14.98305655 31906,6950.268,96.109,574.245,570.022,0.0
55759.0,STARLINK-5081,PAYLOAD,2023-09-23 12:38:32,14.98337058,0.0002998,70.0011,329.2212,277.1505,82.9313,4.5048e-05,4.45e-06,0.0,0 STARLINK-5081,1 55759U 23028U   23266.52676941  .00000445  00000-0  45048-4 0  9993,2 55759  70.0011 329.2212 0002998 277.1505  82.9313 14.98337058 31994,6950.171,96.107,574.12,569.952,0.0
55759.0,STARLINK-5081,PAYLOAD,2023-09-24 11:04:26,14.98329578,0.0002967,70.0013,326.8638,278.0809,82.0013,-1.4396e-05,-2.65e-06,0.0,0 STARLINK-5081,1 55759U 23028U   23267.46141382 -.00000265  00000-0 -14396-4 0  9997,2 55759  70.0013 326.8638 0002967 278.0809  82.0013 14.98329578 32137,6950.194,96.107,574.121,569.997,0.0
55759.0,STARLINK-5081,PAYLOAD,2023-09-24 14:16:41,14.98334115,0.0003134,70.0005,326.5278,277.8652,82.2151,-3.9878e-06,-1.41e-06,0.0,0 STARLINK-5081,1 55759U 23028U   23267.59493029 -.00000141  00000-0 -39878-5 0  9995,2 55759  70.0005 326.5278 0003134 277.8652  82.2151 14.98334115 32155,6950.18,96.107,574.223,569.867,0.0
55759.0,STARLINK-5081,PAYLOAD,2023-09-25 11:06:27,14.98327516,0.0002938,70.0007,324.3401,269.0799,91.0023,-1.9732e-05,-3.28e-06,0.0,0 STARLINK-5081,1 55759U 23028U   23268.46281382 -.00000328  00000-0 -19732-4 0  9992,2 55759  70.0007 324.3401 0002938 269.0799  91.0023 14.98327516 32284,6950.201,96.107,574.108,570.024,0.0
55759.0,STARLINK-5081,PAYLOAD,2023-09-25 12:42:35,14.98324097,0.0003089,70.0004,324.1707,277.7331,82.3477,-7.3401e-05,-9.69e-06,0.0,0 STARLINK-5081,1 55759U 23028U   23268.52957799 -.00000969  00000-0 -73401-4 0  9995,2 55759  70.0004 324.1707 0003089 277.7331  82.3477 14.98324097 32292,6950.211,96.107,574.223,569.929,0.0
55759.0,STARLINK-5081,PAYLOAD,2023-09-26 12:44:35,14.98332593,0.00029,70.0004,321.6468,272.16,87.9227,6.0311e-05,6.27e-06,0.0,0 STARLINK-5081,1 55759U 23028U   23269.53097093  .00000627  00000-0  60311-4 0  9994,2 55759  70.0004 321.6468 0002900 272.1600  87.9227 14.98332593 32448,6950.185,96.107,574.065,570.034,0.0
55759.0,STARLINK-5081,PAYLOAD,2023-09-27 12:46:36,14.98330439,0.0002941,70.0001,319.1213,271.1207,88.9615,8.9582e-05,9.76e-06,0.0,0 STARLINK-5081,1 55759U 23028U   23270.53236952  .00000976  00000-0  89582-4 0  9993,2 55759  70.0001 319.1213 0002941 271.1207  88.9615 14.98330439 32597,6950.192,96.107,574.101,570.012,0.0
55759.0,STARLINK-5081,PAYLOAD,2023-09-28 12:48:38,14.98326527,0.0002927,69.9998,316.5956,269.4591,90.6232,-6.7806e-05,-9.02e-06,0.0,0 STARLINK-5081,1 55759U 23028U   23271.53377826 -.00000902  00000-0 -67806-4 0  9996,2 55759  69.9998 316.5956 0002927 269.4591  90.6232 14.98326527 32749,6950.204,96.107,574.103,570.034,0.0
55759.0,STARLINK-5081,PAYLOAD,2023-09-29 09:38:22,14.98333176,0.0003011,69.9995,314.4069,270.0138,90.0676,3.6923e-06,-4.9e-07,0.0,0 STARLINK-5081,1 55759U 23028U   23272.40165107 -.00000049  00000-0  36923-5 0  9998,2 55759  69.9995 314.4069 0003011 270.0138  90.0676 14.98333176 32876,6950.183,96.107,574.141,569.955,0.0
55759.0,STARLINK-5081,PAYLOAD,2023-09-29 12:50:38,14.98335808,0.0003042,69.9995,314.0705,271.2403,88.8407,2.8392e-05,2.46e-06,0.0,0 STARLINK-5081,1 55759U 23028U   23272.53516840  .00000246  00000-0  28392-4 0  9994,2 55759  69.9995 314.0705 0003042 271.2403  88.8407 14.98335808 32894,6950.175,96.107,574.154,569.926,0.0
55759.0,STARLINK-5081,PAYLOAD,2023-09-30 04:51:58,14.9833392,0.0003196,69.9991,312.3871,271.2537,88.8256,0.00010429,1.152e-05,0.0,0 STARLINK-5081,1 55759U 23028U   23273.20276554  .00001152  00000-0  10429-3 0  9992,2 55759  69.9991 312.3871 0003196 271.2537  88.8256 14.98333920 32999,6950.181,96.107,574.267,569.824,0.0
55759.0,STARLINK-5081,PAYLOAD,2023-09-30 11:16:30,14.98337617,0.0003133,69.9992,311.7139,271.429,88.651,0.00014264,1.61e-05,0.0,0 STARLINK-5081,1 55759U 23028U   23273.46980118  .00001610  00000-0  14264-3 0  9998,2 55759  69.9992 311.7139 0003133 271.4290  88.6510 14.98337617 33033,6950.169,96.107,574.212,569.857,0.0
55759.0,STARLINK-5081,PAYLOAD,2023-10-01 11:18:32,14.9833093,0.0002757,70.0,309.1911,260.1598,99.925,-3.633e-05,-5.26e-06,0.0,0 STARLINK-5081,1 55759U 23028U   23274.47120759 -.00000526  00000-0 -36330-4 0  9993,2 55759  70.0000 309.1911 0002757 260.1598  99.9250 14.98330930 33185,6950.19,96.107,573.971,570.139,0.0
55759.0,STARLINK-5081,PAYLOAD,2023-10-01 12:54:40,14.98331447,0.0002808,69.9999,309.0228,268.4783,91.6055,-4.8786e-05,-6.75e-06,0.0,0 STARLINK-5081,1 55759U 23028U   23274.53796781 -.00000675  00000-0 -48786-4 0  9997,2 55759  69.9999 309.0228 0002808 268.4783  91.6055 14.98331447 33190,6950.188,96.107,574.005,570.102,0.0
55759.0,STARLINK-5081,PAYLOAD,2023-10-02 09:44:25,14.98326284,0.0002802,69.9996,306.8332,267.8868,92.197,-0.00012737,-1.612e-05,0.0,0 STARLINK-5081,1 55759U 23028U   23275.40585314 -.00001612  00000-0 -12737-3 0  9990,2 55759  69.9996 306.8332 0002802 267.8868  92.1970 14.98326284 33329,6950.204,96.107,574.017,570.122,0.0
55759.0,STARLINK-5081,PAYLOAD,2023-10-02 19:21:13,14.9835286,0.0002976,69.9994,305.8234,271.7329,88.3489,-0.00045711,-5.546e-05,0.0,0 STARLINK-5081,1 55759U 23028U   23275.80640327 -.00005546  00000-0 -45711-3 0  9998,2 55759  69.9994 305.8234 0002976 271.7329  88.3489 14.98352860 33382,6950.122,96.106,574.056,569.919,0.0
55759.0,STARLINK-5081,PAYLOAD,2023-10-03 03:21:53,14.9833066,0.0002949,69.9989,304.981,268.2184,91.8637,3.5694e-05,3.33e-06,0.0,0 STARLINK-5081,1 55759U 23028U   23276.14020631  .00000333  00000-0  35694-4 0  9993,2 55759  69.9989 304.9810 0002949 268.2184  91.8637 14.98330660 33430,6950.191,96.107,574.105,570.006,0.0
55759.0,STARLINK-5081,PAYLOAD,2023-10-03 11:22:34,14.98331471,0.0002963,69.9987,304.1391,268.7557,91.3263,4.2948e-05,4.19e-06,0.0,0 STARLINK-5081,1 55759U 23028U   23276.47400558  .00000419  00000-0  42948-4 0  9994,2 55759  69.9987 304.1391 0002963 268.7557  91.3263 14.98331471 33485,6950.188,96.107,574.113,569.994,0.0
55759.0,STARLINK-5081,PAYLOAD,2023-10-04 09:48:27,14.98326517,0.0003001,69.9985,301.7822,268.7917,91.2899,5.3483e-05,5.45e-06,0.0,0 STARLINK-5081,1 55759U 23028U   23277.40864930  .00000545  00000-0  53483-4 0  9992,2 55759  69.9985 301.7822 0003001 268.7917  91.2899 14.98326517 33624,6950.204,96.107,574.154,569.983,0.0
55759.0,STARLINK-5081,PAYLOAD,2023-10-04 11:24:35,14.98328047,0.0002986,69.9985,301.6139,268.6864,91.3953,6.9759e-05,7.39e-06,0.0,0 STARLINK-5081,1 55759U 23028U   23277.47540803  .00000739  00000-0  69759-4 0  9997,2 55759  69.9985 301.6139 0002986 268.6864  91.3953 14.98328047 33638,6950.199,96.107,574.139,569.989,0.0
55759.0,STARLINK-5081,PAYLOAD,2023-10-04 19:25:15,14.98328743,0.0003,69.9984,300.7718,269.1116,90.9699,3.0871e-05,2.75e-06,0.0,0 STARLINK-5081,1 55759U 23028U   23277.80920875  .00000275  00000-0  30871-4 0  9993,2 55759  69.9984 300.7718 0003000 269.1116  90.9699 14.98328743 33684,6950.197,96.107,574.147,569.977,0.0
55759.0,STARLINK-5081,PAYLOAD,2023-10-05 09:50:28,14.98332606,0.0003003,69.9984,299.257,269.7496,90.3318,-3.9717e-06,-1.4e-06,0.0,0 STARLINK-5081,1 55759U 23028U   23278.41004704 -.00000140  00000-0 -39717-5 0  9997,2 55759  69.9984 299.2570 0003003 269.7496  90.3318 14.98332606 33777,6950.185,96.107,574.137,569.963,0.0
55759.0,STARLINK-5081,PAYLOAD,2023-10-05 11:26:36,14.9833335,0.0003,69.9984,299.0887,269.748,90.3335,4.1809e-06,-4.3e-07,0.0,0 STARLINK-5081,1 55759U 23028U   23278.47680620 -.00000043  00000-0  41809-5 0  9996,2 55759  69.9984 299.0887 0003000 269.7480  90.3335 14.98333350 33783,6950.183,96.107,574.133,569.962,0.0
55759.0,STARLINK-5081,PAYLOAD,2023-10-06 09:52:28,14.98335951,0.0002895,69.9988,296.7324,268.9517,91.131,4.6762e-05,4.65e-06,0.0,0 STARLINK-5081,1 55759U 23028U   23279.41144184  .00000465  00000-0  46762-4 0  9990,2 55759  69.9988 296.7324 0002895 268.9517  91.1310 14.98335951 33927,6950.174,96.107,574.052,570.027,0.0
55759.0,STARLINK-5081,PAYLOAD,2023-10-06 11:28:36,14.98336343,0.0002894,69.9988,296.5641,268.8933,91.1894,5.1224e-05,5.18e-06,0.0,0 STARLINK-5081,1 55759U 23028U   23279.47820122  .00000518  00000-0  51224-4 0  9997,2 55759  69.9988 296.5641 0002894 268.8933  91.1894 14.98336343 33931,6950.173,96.107,574.05,570.027,0.0
55759.0,STARLINK-5081,PAYLOAD,2023-10-07 09:54:30,14.98324381,0.0002395,70.0,294.2084,255.9171,104.1722,-3.1506e-06,-1.3e-06,0.0,0 STARLINK-5081,1 55759U 23028U   23280.41284965 -.00000130  00000-0 -31506-5 0  9996,2 55759  70.0000 294.2084 0002395 255.9171 104.1722 14.98324381 34072,6950.21,96.107,573.74,570.411,0.0
